    ["GLOBALSTAR M004", "1 25163U 98008B   26057.20095429 -.00000068  00000+0  19698-3 0  9993", "2 25163  52.0032 359.2051 0003425 126.7406  12.1638 12.63415553293792"],
    ["GLOBALSTAR M002", "1 25164U 98008C   26057.11997948 -.00000053  00000+0  46818-3 0  9999", "2 25164  52.0037 323.5095 0000674 250.3774 109.6973 11.61515366213577"],
    ["GLOBALSTAR M003", "1 25165U 98008D   26057.53362932 -.00000179  00000+0 -95817-3 0  9998", "2 25165  51.9856 184.0361 0008848  85.7185 354.9426 12.12026394264061"],
    ["GLOBALSTAR M014", "1 25306U 98023A   26057.48791073 -.00000052  00000+0  47119-3 0  9999", "2 25306  51.9806 240.4606 0001987  99.8987 274.2972 11.65484797220823"],
    ["GLOBALSTAR M006", "1 25307U 98023B   26057.41025565 -.00000048  00000+0  57519-3 0  9999", "2 25307  51.9950 302.6362 0002506 198.9372 331.6362 11.58177140246283"],
    ["GLOBALSTAR M015", "1 25308U 98023C   26057.19792335 -.00000088  00000+0 -33086-3 0  9999", "2 25308  51.9832  53.2733 0012780 167.6998 276.5202 11.48860455223277"],
    ["GLOBALSTAR M008", "1 25309U 98023D   26057.55279434 -.00000099  00000+0 -19191-4 0  9994", "2 25309  51.9960 180.5740 0002341   9.4227  72.8508 12.36080928269309"],
    ["GLOBALSTAR M023", "1 25621U 99004A   26057.59215572 -.00000109  00000+0 -26023-4 0  9992", "2 25621  52.0135 358.7627 0009655 332.4376 199.1961 12.62518285247868"],
    ["GLOBALSTAR M040", "1 25622U 99004B   26057.58639777 -.00000082  00000+0  12402-3 0  9993", "2 25622  51.9947   3.3081 0000432 211.1615 319.4109 12.62028855247374"],
    ["GLOBALSTAR M036", "1 25623U 99004C   26057.59144912 -.00000044  00000+0  56842-3 0  9991", "2 25623  51.9968 289.7551 0010421 174.7891 199.5395 11.86619842209187"],
    ["GLOBALSTAR M038", "1 25624U 99004D   26057.43040292 -.00000080  00000+0  12042-3 0  9995", "2 25624  51.9974  59.3683 0001683 215.8285 291.3363 12.32541579233722"],
    ["GLOBALSTAR M022", "1 25649U 99012A   26057.45239826 -.00000073  00000+0  17186-3 0  9992", "2 25649  52.0062 319.6884 0002446 328.3802 202.6493 12.02510095206968"],
    ["GLOBALSTAR M041", "1 25650U 99012B   26057.38954197 -.00000072  00000+0  17626-3 0  9999", "2 25650  51.9998 209.0569 0002258 104.3322 255.7766 11.96684559208714"],
    ["GLOBALSTAR M046", "1 25651U 99012C   26057.64423512 -.00000125  00000+0 -39794-3 0  9991", "2 25651  52.0035 260.0126 0002657  54.9211 348.9059 12.09420784214456"],
    ["GLOBALSTAR M037", "1 25652U 99012D   26057.40358076 -.00000113  00000+0 -50316-4 0  9999", "2 25652  51.9993 129.8602 0002014  47.7816  33.1476 12.62461982243381"],
    ["GLOBALSTAR M045", "1 25676U 99019A   26057.43562134 -.00000065  00000+0  25541-3 0  9993", "2 25676  51.9977 300.6025 0000941  61.3251 109.7599 12.27072946224608"],
    ["GLOBALSTAR M019", "1 25677U 99019B   26057.47808396 -.00000069  00000+0  22200-3 0  9994", "2 25677  51.9870  88.7402 0001798 118.8184  32.8471 12.13886394216025"],
    ["GLOBALSTAR M044", "1 25678U 99019C   26057.48951277 -.00000089  00000+0 -69116-4 0  9994", "2 25678  51.9967  71.8793 0006321 167.9426 359.2422 11.90262399201607"],
    ["GLOBALSTAR M042", "1 25679U 99019D   26057.25225309 -.00000111  00000+0 -17442-3 0  9990", "2 25679  52.0024  53.7111 0003104 102.7381 270.0886 12.22094643216320"],
    ["GLOBALSTAR M025", "1 25770U 99031A   26057.60572407 -.00000065  00000+0  70061-4 0  9993", "2 25770  51.9815 289.8940 0001774 179.0815 192.6565 11.22560633510281"],
    ["GLOBALSTAR M049", "1 25771U 99031B   26057.08397630 -.00000124  00000+0 -20354-2 0  9994", "2 25771  51.9915 338.6216 0003317  83.8201 276.2974 11.12122900145678"],
    ["GLOBALSTAR M047", "1 25772U 99031C   26057.03324715 -.00000050  00000+0  54801-3 0  9996", "2 25772  51.9853 311.4564 0016394 341.7516  18.2700 11.31932349499859"],
    ["GLOBALSTAR M052", "1 25773U 99031D   26057.57702411 -.00000093  00000+0 -91719-3 0  9996", "2 25773  51.9857  82.5987 0002626 226.5626 310.2600 11.15063737506888"],
    ["GLOBALSTAR M035", "1 25851U 99037A   26057.41072087 -.00000068  00000+0 -17445-3 0  9997", "2 25851  51.9920 208.0182 0013964  38.6400 333.6046 11.04541668124350"],
    ["GLOBALSTAR M032", "1 25852U 99037B   26057.54576198 -.00000067  00000+0 -16403-4 0  9997", "2 25852  51.9993  15.3667 0012452 235.5039 124.4585 11.19067768163262"],
    ["GLOBALSTAR M051", "1 25853U 99037C   26057.45416868 -.00000085  00000+0 -32527-3 0  9999", "2 25853  51.9783 147.5034 0000856 124.6658 235.4233 11.42200232161448"],
    ["GLOBALSTAR M030", "1 25854U 99037D   26057.58147681 -.00000116  00000+0 -87456-3 0  9994", "2 25854  51.9883 297.1255 0004163 122.9917 237.1300 11.55104863179441"],
    ["GLOBALSTAR M048", "1 25872U 99041A   26057.27745067 -.00000069  00000+0  13963-4 0  9996", "2 25872  51.9358  92.7845 0013153 263.2582 178.0919 11.33862489153800"],
    ["GLOBALSTAR M026", "1 25873U 99041B   26057.21857126  .00000028  00000+0  33815-2 0  9991", "2 25873  52.0043 323.7300 0002045 348.0350 183.4262 11.06840570176612"],
    ["GLOBALSTAR M043", "1 25874U 99041C   26057.39306112 -.00000064  00000+0  13372-3 0  9993", "2 25874  51.9374 210.2810 0013506  29.4213 352.1680 11.25697932151509"],
    ["GLOBALSTAR M028", "1 25875U 99041D   26057.47021776 -.00000091  00000+0  54343-4 0  9997", "2 25875  51.9622 154.8278 0062790 263.3479  96.0232 12.50596480221992"],
    ["GLOBALSTAR M024", "1 25883U 99043A   26057.47311518 -.00000031  00000+0  12007-2 0  9997", "2 25883  52.0010 166.8610 0002352 142.1517 298.9242 11.10171616143107"],
    ["GLOBALSTAR M027", "1 25884U 99043B   26057.56435956 -.00000087  00000+0 -87253-3 0  9999", "2 25884  52.0180 251.8478 0021984  44.0032 316.2507 11.04373589169345"],
    ["GLOBALSTAR M054", "1 25885U 99043C   26057.51722376 -.00000043  00000+0  72940-3 0  9998", "2 25885  52.0176 336.5677 0004193 257.5044 273.1427 11.39224804148038"],
    ["GLOBALSTAR M053", "1 25886U 99043D   26057.63923968 -.00000043  00000+0  74091-3 0  9991", "2 25886  51.9990 297.4914 0003706 139.9675 233.2838 11.27670592148154"],
    ["GLOBALSTAR M058", "1 25907U 99049A   26057.46757891 -.00000097  00000+0 -16629-3 0  9995", "2 25907  51.9934 150.1721 0002256  57.3084 302.7968 11.93207972571891"],
    ["GLOBALSTAR M050", "1 25908U 99049B   26057.50547214 -.00000055  00000+0  37584-3 0  9993", "2 25908  51.9982 138.7461 0009572 175.3723 198.4785 12.07464785178913"],
    ["GLOBALSTAR M033", "1 25909U 99049C   26057.18671825 -.00000045  00000+0  45090-3 0  9994", "2 25909  51.9943 353.9113 0014900  66.9402 293.3014 12.20304985566759"],
    ["GLOBALSTAR M055", "1 25910U 99049D   26057.48207900 -.00000079  00000+0  12838-3 0  9999", "2 25910  52.0052 351.4426 0006664 304.3036  55.7184 12.29440840199563"],
    ["GLOBALSTAR M057", "1 25943U 99058A   26057.15339716 -.00000067  00000+0  23132-3 0  9996", "2 25943  52.0017 347.4419 0002297 164.5823 195.5097 12.24834212198059"],
    ["GLOBALSTAR M059", "1 25944U 99058B   26057.46773317 -.00000048  00000+0  47256-3 0  9992", "2 25944  51.9989 239.2534 0001369 104.0948 271.0419 11.99994763604574"],
    ["GLOBALSTAR M056", "1 25945U 99058C   26057.53868343 -.00000004  00000+0  97875-3 0  9999", "2 25945  51.9936 234.5026 0000909  27.8426  11.0418 12.04785427193287"],
    ["GLOBALSTAR M031", "1 25946U 99058D   26057.46780756 -.00000087  00000+0  33981-4 0  9993", "2 25946  51.9950 111.7908 0000915 350.1698  23.3187 12.16048696195485"],
    ["GLOBALSTAR M039", "1 25961U 99062A   26057.41099913 -.00000084  00000+0  10855-3 0  9999", "2 25961  51.9827 214.3869 0002809 171.2085 188.8831 12.62342538212326"],
    ["GLOBALSTAR M034", "1 25962U 99062B   26057.47066855 -.00000097  00000+0 -26232-3 0  9996", "2 25962  51.9873  70.3896 0014396 161.5759   5.9215 11.79455831168392"],
    ["GLOBALSTAR M029", "1 25963U 99062C   26057.60857133 -.00000086  00000+0  16589-5 0  9992", "2 25963  51.9793 126.6900 0002217 241.8029 266.6115 11.99908460199668"],
    ["GLOBALSTAR M061", "1 25964U 99062D   26057.59790336 -.00000038  00000+0  68943-3 0  9998", "2 25964  51.9770 257.4766 0006979  84.1472 313.6332 11.76778287151137"],
    ["GLOBALSTAR M063", "1 26081U 00008A   26057.54835493 -.00000099  00000+0 -24182-3 0  9995", "2 26081  51.9945 161.6681 0005188  87.0123 286.2987 11.86181071187769"],
    ["GLOBALSTAR M062", "1 26082U 00008B   26057.27783824  .00000023  00000+0  86878-3 0  9991", "2 26082  51.9844  68.5651 0007143 295.8945  77.4016 12.43479828528232"],
    ["GLOBALSTAR M060", "1 26083U 00008C   26057.20642332 -.00000155  00000+0 -64167-3 0  9998", "2 26083  52.0022  64.7233 0002987 279.5172 161.3832 12.17676296183313"],
    ["GLOBALSTAR M064", "1 26084U 00008D   26056.95512676 -.00000038  00000+0  64306-3 0  9991", "2 26084  52.0004 259.0712 0001700 148.5687 211.5248 11.88542219197276"],
    ["GLOBALSTAR M065", "1 31571U 07020A   26057.54147304 -.00000101  00000+0  17358-4 0  9994", "2 31571  51.9887 172.0822 0010517 148.5519 294.5462 12.62021199865527"],
    ["GLOBALSTAR M069", "1 31573U 07020C   26057.64463999 -.00000094  00000+0 -12793-4 0  9998", "2 31573  52.0019 205.0039 0000810 269.9623 103.1602 12.23469066865273"],
    ["GLOBALSTAR M072", "1 31574U 07020D   26057.35143478 -.00000097  00000+0 -17624-3 0  9994", "2 31574  51.9950  35.3194 0001385  93.0185  55.6246 11.91655789861767"],
    ["GLOBALSTAR M071", "1 31576U 07020F   26057.54789363  .00000000  00000+0  89916-3 0  9991", "2 31576  52.0036 238.0671 0000314 130.0252 264.9382 12.18266338525947"],
    ["GLOBALSTAR M067", "1 32263U 07048A   26057.61319431 -.00000055  00000+0  31718-3 0  9996", "2 32263  51.9755  11.4487 0001134 144.0062  26.8636 12.40685299841067"],
    ["GLOBALSTAR M070", "1 32264U 07048B   26057.22897170 -.00000090  00000+0  79422-4 0  9999", "2 32264  51.9745  74.5779 0000342  72.3469   7.6523 12.62330896845751"],
    ["GLOBALSTAR M066", "1 32265U 07048C   26057.61879531 -.00000100  00000+0 -48950-4 0  9999", "2 32265  51.9616  15.3223 0004614 164.9439   6.5918 12.30385305846619"],
}